{"type": "FeatureCollection", "features": [{"type": "Feature", "properties": {"norad_id": 24876, "name": "GPS BIIR-2  (PRN 13)", "group": "gnss", "lat": -2.3631101656973392, "lon": -72.60875287051144, "alt_km": 20331.599234958187, "timestamp": "2025-12-14T11:29:50.301892+00:00", "meta": {"OBJECT_NAME": "GPS BIIR-2  (PRN 13)", "OBJECT_ID": "1997-035A", "EPOCH": "2025-12-12T17:35:03.459552", "MEAN_MOTION": 2.00563636, "ECCENTRICITY": 0.00967745, "INCLINATION": 55.8952, "RA_OF_ASC_NODE": 105.8691, "ARG_OF_PERICENTER": 56.9985, "MEAN_ANOMALY": 303.9066, "EPHEMERIS_TYPE": 0, "CLASSIFICATION_TYPE": "U", "NORAD_CAT_ID": 24876, "ELEMENT_SET_NO": 999, "REV_AT_EPOCH": 20821, "BSTAR": 0, "MEAN_MOTION_DOT": 1e-07, "MEAN_MOTION_DDOT": 0}, "tle": {"line1": "1 24876U 97035A   25346.73267893  .00000010  00000+0  00000+0 0  9995", "line2": "2 24876  55.8952 105.8691 0096774  56.9985 303.9066  2.00563636208219"}}, "geometry": {"type": "Point", "coordinates": [-72.60875287051144, -2.3631101656973392]}}, {"type": "Feature", "properties": {"norad_id": 26360, "name": "GPS BIIR-4  (PRN 20)", "group": "gnss", "lat": -54.840994887584074, "lon": -56.170284313636124, "alt_km": 20099.86708734051, "timestamp": "2025-12-14T11:29:50.301937+00:00", "meta": {"OBJECT_NAME": "GPS BIIR-4  (PRN 20)", "OBJECT_ID": "2000-025A", "EPOCH": "2025-12-13T02:44:33.459360", "MEAN_MOTION": 2.00567712, "ECCENTRICITY": 0.00388747, "INCLINATION": 55.0454, "RA_OF_ASC_NODE": 26.8226, "ARG_OF_PERICENTER": 242.031, "MEAN_ANOMALY": 126.3548, "EPHEMERIS_TYPE": 0, "CLASSIFICATION_TYPE": "U", "NORAD_CAT_ID": 26360, "ELEMENT_SET_NO": 999, "REV_AT_EPOCH": 18754, "BSTAR": 0, "MEAN_MOTION_DOT": -9.9e-07, "MEAN_MOTION_DDOT": 0}, "tle": {"line1": "1 26360U 00025A   25347.11427615 -.00000099  00000+0  00000+0 0  9999", "line2": "2 26360  55.0454  26.8226 0038874 242.0310 126.3548  2.00567712187544"}}, "geometry": {"type": "Point", "coordinates": [-56.170284313636124, -54.840994887584074]}}, {"type": "Feature", "properties": {"norad_id": 26407, "name": "GPS BIIR-5  (PRN 22)", "group": "gnss", "lat": 48.55032145676769, "lon": -10.237658627877945, "alt_km": 20506.621793073144, "timestamp": "2025-12-14T11:29:50.301955+00:00", "meta": {"OBJECT_NAME": "GPS BIIR-5  (PRN 22)", "OBJECT_ID": "2000-040A", "EPOCH": "2025-12-13T01:34:44.094432", "MEAN_MOTION": 2.00567991, "ECCENTRICITY": 0.01259938, "INCLINATION": 54.8907, "RA_OF_ASC_NODE": 222.556, "ARG_OF_PERICENTER": 301.8176, "MEAN_ANOMALY": 231.1647, "EPHEMERIS_TYPE": 0, "CLASSIFICATION_TYPE": "U", "NORAD_CAT_ID": 26407, "ELEMENT_SET_NO": 999, "REV_AT_EPOCH": 18621, "BSTAR": 0, "MEAN_MOTION_DOT": 1.8e-07, "MEAN_MOTION_DDOT": 0}, "tle": {"line1": "1 26407U 00040A   25347.06578813  .00000018  00000+0  00000+0 0  9999", "line2": "2 26407  54.8907 222.5560 0125993 301.8176 231.1647  2.00567991186212"}}, "geometry": {"type": "Point", "coordinates": [-10.237658627877945, 48.55032145676769]}}, {"type": "Feature", "properties": {"norad_id": 27663, "name": "GPS BIIR-8  (PRN 16)", "group": "gnss", "lat": -49.73946435314714, "lon": 98.31753456723007, "alt_km": 20561.52836041367, "timestamp": "2025-12-14T11:29:50.301970+00:00", "meta": {"OBJECT_NAME": "GPS BIIR-8  (PRN 16)", "OBJECT_ID": "2003-005A", "EPOCH": "2025-12-13T09:15:26.891424", "MEAN_MOTION": 2.00570905, "ECCENTRICITY": 0.01474873, "INCLINATION": 54.9232, "RA_OF_ASC_NODE": 222.3526, "ARG_OF_PERICENTER": 51.8083, "MEAN_ANOMALY": 128.0829, "EPHEMERIS_TYPE": 0, "CLASSIFICATION_TYPE": "U", "NORAD_CAT_ID": 27663, "ELEMENT_SET_NO": 999, "REV_AT_EPOCH": 16758, "BSTAR": 0, "MEAN_MOTION_DOT": 2.3e-07, "MEAN_MOTION_DDOT": 0}, "tle": {"line1": "1 27663U 03005A   25347.38572791  .00000023  00000+0  00000+0 0  9998", "line2": "2 27663  54.9232 222.3526 0147487  51.8083 128.0829  2.00570905167584"}}, "geometry": {"type": "Point", "coordinates": [98.31753456723007, -49.73946435314714]}}, {"type": "Feature", "properties": {"norad_id": 28190, "name": "GPS BIIR-11 (PRN 19)", "group": "gnss", "lat": 36.77394994878272, "lon": -45.311460597471836, "alt_km": 20322.54188963478, "timestamp": "2025-12-14T11:29:50.302002+00:00", "meta": {"OBJECT_NAME": "GPS BIIR-11 (PRN 19)", "OBJECT_ID": "2004-009A", "EPOCH": "2025-12-11T22:20:18.324960", "MEAN_MOTION": 2.00560799, "ECCENTRICITY": 0.0108335, "INCLINATION": 54.9863, "RA_OF_ASC_NODE": 283.2515, "ARG_OF_PERICENTER": 167.6362, "MEAN_ANOMALY": 200.4215, "EPHEMERIS_TYPE": 0, "CLASSIFICATION_TYPE": "U", "NORAD_CAT_ID": 28190, "ELEMENT_SET_NO": 999, "REV_AT_EPOCH": 15919, "BSTAR": 0, "MEAN_MOTION_DOT": -7.6e-07, "MEAN_MOTION_DDOT": 0}, "tle": {"line1": "1 28190U 04009A   25345.93076765 -.00000076  00000+0  00000+0 0  9997", "line2": "2 28190  54.9863 283.2515 0108335 167.6362 200.4215  2.00560799159191"}}, "geometry": {"type": "Point", "coordinates": [-45.311460597471836, 36.77394994878272]}}, {"type": "Feature", "properties": {"norad_id": 28474, "name": "GPS BIIR-13 (PRN 02)", "group": "gnss", "lat": 50.9993538083892, "lon": 93.29948005214966, "alt_km": 20600.463201387265, "timestamp": "2025-12-14T11:29:50.302018+00:00", "meta": {"OBJECT_NAME": "GPS BIIR-13 (PRN 02)", "OBJECT_ID": "2004-045A", "EPOCH": "2025-12-12T12:01:27.782400", "MEAN_MOTION": 2.00569519, "ECCENTRICITY": 0.0170757, "INCLINATION": 55.2408, "RA_OF_ASC_NODE": 332.4152, "ARG_OF_PERICENTER": 309.2412, "MEAN_ANOMALY": 170.6572, "EPHEMERIS_TYPE": 0, "CLASSIFICATION_TYPE": "U", "NORAD_CAT_ID": 28474, "ELEMENT_SET_NO": 999, "REV_AT_EPOCH": 15468, "BSTAR": 0, "MEAN_MOTION_DOT": -8.8e-07, "MEAN_MOTION_DDOT": 0}, "tle": {"line1": "1 28474U 04045A   25346.50101600 -.00000088  00000+0  00000+0 0  9996", "line2": "2 28474  55.2408 332.4152 0170757 309.2412 170.6572  2.00569519154688"}}, "geometry": {"type": "Point", "coordinates": [93.29948005214966, 50.9993538083892]}}, {"type": "Feature", "properties": {"norad_id": 28874, "name": "GPS BIIRM-1 (PRN 17)", "group": "gnss", "lat": 49.56233237456604, "lon": -24.27846281917015, "alt_km": 20418.414843671624, "timestamp": "2025-12-14T11:29:50.302043+00:00", "meta": {"OBJECT_NAME": "GPS BIIRM-1 (PRN 17)", "OBJECT_ID": "2005-038A", "EPOCH": "2025-12-10T14:00:21.521088", "MEAN_MOTION": 2.00578486, "ECCENTRICITY": 0.0131701, "INCLINATION": 55.0338, "RA_OF_ASC_NODE": 280.7877, "ARG_OF_PERICENTER": 293.4518, "MEAN_ANOMALY": 200.7371, "EPHEMERIS_TYPE": 0, "CLASSIFICATION_TYPE": "U", "NORAD_CAT_ID": 28874, "ELEMENT_SET_NO": 999, "REV_AT_EPOCH": 14805, "BSTAR": 0, "MEAN_MOTION_DOT": -6.4e-07, "MEAN_MOTION_DDOT": 0}, "tle": {"line1": "1 28874U 05038A   25344.58358242 -.00000064  00000+0  00000+0 0  9999", "line2": "2 28874  55.0338 280.7877 0131701 293.4518 200.7371  2.00578486148057"}}, "geometry": {"type": "Point", "coordinates": [-24.27846281917015, 49.56233237456604]}}, {"type": "Feature", "properties": {"norad_id": 28899, "name": "INMARSAT 4-F2 (SOUTHPAN/PRN 122)", "group": "gnss", "lat": -0.3496069762268315, "lon": 39.38982944098026, "alt_km": 35794.883284386786, "timestamp": "2025-12-14T11:29:50.302066+00:00", "meta": {"OBJECT_NAME": "INMARSAT 4-F2 (SOUTHPAN/PRN 122)", "OBJECT_ID": "2005-044A", "EPOCH": "2025-12-13T09:30:48.496896", "MEAN_MOTION": 1.0027146, "ECCENTRICITY": 0.00029067, "INCLINATION": 4.8535, "RA_OF_ASC_NODE": 43.6929, "ARG_OF_PERICENTER": 221.6866, "MEAN_ANOMALY": 103.1555, "EPHEMERIS_TYPE": 0, "CLASSIFICATION_TYPE": "U", "NORAD_CAT_ID": 28899, "ELEMENT_SET_NO": 999, "REV_AT_EPOCH": 7365, "BSTAR": 0, "MEAN_MOTION_DOT": -2.49e-06, "MEAN_MOTION_DDOT": 0}, "tle": {"line1": "1 28899U 05044A   25347.39639464 -.00000249  00000+0  00000+0 0  9998", "line2": "2 28899   4.8535  43.6929 0002906 221.6866 103.1555  1.00271460 73656"}}, "geometry": {"type": "Point", "coordinates": [39.38982944098026, -0.3496069762268315]}}, {"type": "Feature", "properties": {"norad_id": 29486, "name": "GPS BIIRM-2 (PRN 31)", "group": "gnss", "lat": -24.939785517006488, "lon": 139.41718007357522, "alt_km": 20149.210505686173, "timestamp": "2025-12-14T11:29:50.302090+00:00", "meta": {"OBJECT_NAME": "GPS BIIRM-2 (PRN 31)", "OBJECT_ID": "2006-042A", "EPOCH": "2025-12-13T12:57:38.926368", "MEAN_MOTION": 2.00554149, "ECCENTRICITY": 0.01073458, "INCLINATION": 54.6942, "RA_OF_ASC_NODE": 158.7089, "ARG_OF_PERICENTER": 51.9789, "MEAN_ANOMALY": 320.1395, "EPHEMERIS_TYPE": 0, "CLASSIFICATION_TYPE": "U", "NORAD_CAT_ID": 29486, "ELEMENT_SET_NO": 999, "REV_AT_EPOCH": 14067, "BSTAR": 0, "MEAN_MOTION_DOT": 1.01e-06, "MEAN_MOTION_DDOT": 0}, "tle": {"line1": "1 29486U 06042A   25347.54003387  .00000101  00000+0  00000+0 0  9992", "line2": "2 29486  54.6942 158.7089 0107345  51.9789 320.1395  2.00554149140679"}}, "geometry": {"type": "Point", "coordinates": [139.41718007357522, -24.939785517006488]}}, {"type": "Feature", "properties": {"norad_id": 29601, "name": "GPS BIIRM-3 (PRN 12)", "group": "gnss", "lat": 21.777944007024413, "lon": -122.40167167959781, "alt_km": 20062.414843919723, "timestamp": "2025-12-14T11:29:50.302104+00:00", "meta": {"OBJECT_NAME": "GPS BIIRM-3 (PRN 12)", "OBJECT_ID": "2006-052A", "EPOCH": "2025-12-11T22:46:47.068032", "MEAN_MOTION": 2.00573524, "ECCENTRICITY": 0.00877389, "INCLINATION": 54.9707, "RA_OF_ASC_NODE": 221.4296, "ARG_OF_PERICENTER": 87.4221, "MEAN_ANOMALY": 273.6564, "EPHEMERIS_TYPE": 0, "CLASSIFICATION_TYPE": "U", "NORAD_CAT_ID": 29601, "ELEMENT_SET_NO": 999, "REV_AT_EPOCH": 13965, "BSTAR": 0, "MEAN_MOTION_DOT": 9e-08, "MEAN_MOTION_DDOT": 0}, "tle": {"line1": "1 29601U 06052A   25345.94915588  .00000009  00000+0  00000+0 0  9996", "line2": "2 29601  54.9707 221.4296 0087738  87.4221 273.6564  2.00573524139650"}}, "geometry": {"type": "Point", "coordinates": [-122.40167167959781, 21.777944007024413]}}]}